{
  "58186": {
    "noradId": "58186",
    "tle": [
      "1 58186C 23167M   25288.78590278  .00015100  00000+0  11139-2 0  2882",
      "2 58186  43.0022 213.4737 0001290 261.3035 179.8516 15.02528189    19"
    ]
  },
  "58187": {
    "noradId": "58187",
    "tle": [
      "1 58187C 23167N   25288.78104167 -.00011106  00000+0 -81945-3 0  2888",
      "2 58187  43.0025 213.0531 0001343 266.6395 334.4977 15.02547784    19"
    ]
  },
  "58188": {
    "noradId": "58188",
    "tle": [
      "1 58188C 23167P   25288.78520833 -.00038839  00000+0 -28657-2 0  2883",
      "2 58188  43.0020 213.4660 0001241 272.8354 170.5532 15.02576358    18"
    ]
  },
  "58189": {
    "noradId": "58189",
    "tle": [
      "1 58189C 23167Q   25288.78868056  .00015671  00000+0  11560-2 0  2888",
      "2 58189  43.0023 213.4868 0001325 258.6561 185.5135 15.02528620    11"
    ]
  },
  "58190": {
    "noradId": "58190",
    "tle": [
      "1 58190C 23167R   25288.78868056 -.00036023  00000+0 -26575-2 0  2888",
      "2 58190  43.0024 213.5302 0001198 264.6587 161.4783 15.02577668    19"
    ]
  },
  "58191": {
    "noradId": "58191",
    "tle": [
      "1 58191C 23167S   25288.78520833 -.00016701  00000+0 -12321-2 0  2882",
      "2 58191  43.0021 213.3806 0001258 268.2658 211.1715 15.02558441    16"
    ]
  },
  "58192": {
    "noradId": "58192",
    "tle": [
      "1 58192C 23167T   25288.78381944 -.00008339  00000+0 -61524-3 0  2889",
      "2 58192  43.0025 213.4297 0001284 267.1438 186.7576 15.02545308    19"
    ]
  },
  "58193": {
    "noradId": "58193",
    "tle": [
      "1 58193C 23167U   25288.78381944 -.00016437  00000+0 -12127-2 0  2882",
      "2 58193  43.0022 213.3402 0001141 269.3185 220.6296 15.02556252    16"
    ]
  },
  "58194": {
    "noradId": "58194",
    "tle": [
      "1 58194C 23167V   25288.78868056 -.00020541  00000+0 -15155-2 0  2882",
      "2 58194  43.0019 213.2402 0001330 270.5664 269.7693 15.02559597    18"
    ]
  },
  "58195": {
    "noradId": "58195",
    "tle": [
      "1 58195C 23167W   25288.78173611  .00016925  00000+0  12487-2 0  2883",
      "2 58195  43.0024 213.2699 0001404 266.9924 247.7697 15.02521576    19"
    ]
  },
  "58196": {
    "noradId": "58196",
    "tle": [
      "1 58196C 23167X   25288.78729167 -.00064056  00000+0 -47230-2 0  2881",
      "2 58196  43.0024 213.7944 0001388 264.3494  46.0802 15.02626971    16"
    ]
  },
  "58197": {
    "noradId": "58197",
    "tle": [
      "1 58197C 23167Y   25288.78451389  .00014892  00000+0  10986-2 0  2889",
      "2 58197  43.0023 213.2903 0001410 261.1838 250.5854 15.02528750    14"
    ]
  },
  "58206": {
    "noradId": "58206",
    "tle": [
      "1 58206C 23170A   25288.78243056  .00009752  00000+0  71980-3 0  2885",
      "2 58206  43.0017 263.5574 0001291 244.1511 299.9179 15.02512563    18"
    ]
  },
  "58207": {
    "noradId": "58207",
    "tle": [
      "1 58207C 23170B   25288.78520833 -.00007179  00000+0 -52966-3 0  2883",
      "2 58207  43.0008 263.0891 0001287 268.9757 128.4359 15.02544284    18"
    ]
  },
  "58208": {
    "noradId": "58208",
    "tle": [
      "1 58208C 23170C   25288.78451389  .00005515  00000+0  40693-3 0  2887",
      "2 58208  43.0021 263.6599 0001238 269.2299 232.0171 15.02526770    10"
    ]
  },
  "58209": {
    "noradId": "58209",
    "tle": [
      "1 58209C 23170D   25288.78937500 -.00007021  00000+0 -51815-3 0  2886",
      "2 58209  43.0019 263.3897 0001232 262.3799  13.3962 15.02533110    13"
    ]
  },
  "58210": {
    "noradId": "58210",
    "tle": [
      "1 58210C 23170E   25288.78173611 -.00010382  00000+0 -76600-3 0  2886",
      "2 58210  43.0019 263.4749 0001262 269.3708 306.9538 15.02546977    17"
    ]
  },
  "58211": {
    "noradId": "58211",
    "tle": [
      "1 58211C 23170F   25288.78312500  .00008466  00000+0  62470-3 0  2887",
      "2 58211  43.0020 263.3394 0001305 266.1470  11.8260 15.02523921    12"
    ]
  },
  "58212": {
    "noradId": "58212",
    "tle": [
      "1 58212C 23170G   25288.78312500 -.00005616  00000+0 -41440-3 0  2888",
      "2 58212  43.0021 263.4920 0001280 269.2639 296.5791 15.02537621    16"
    ]
  },
  "58213": {
    "noradId": "58213",
    "tle": [
      "1 58213C 23170H   25288.78312500  .00008704  00000+0  64224-3 0  2883",
      "2 58213  43.0019 263.2963 0001286 266.6314  29.3721 15.02526112    14"
    ]
  },
  "58214": {
    "noradId": "58214",
    "tle": [
      "1 58214C 23170J   25288.78868056  .00009932  00000+0  73284-3 0  2886",
      "2 58214  43.0018 263.2222 0001269 260.5687  83.5429 15.02526628    18"
    ]
  },
  "58215": {
    "noradId": "58215",
    "tle": [
      "1 58215C 23170K   25288.78173611 -.00005556  00000+0 -40994-3 0  2885",
      "2 58215  43.0020 263.2169 0001301 269.8188  54.7082 15.02542421    11"
    ]
  },
  "58217": {
    "noradId": "58217",
    "tle": [
      "1 58217C 23170M   25288.78798611  .00009219  00000+0  68025-3 0  2883",
      "2 58217  43.0020 263.0974 0001330 261.0743 133.3701 15.02526041    10"
    ]
  },
  "58218": {
    "noradId": "58218",
    "tle": [
      "1 58218C 23170N   25288.78243056  .00010246  00000+0  75625-3 0  2888",
      "2 58218  43.0021 263.3666 0001337 257.2863 358.8984 15.02512495    15"
    ]
  },
  "58219": {
    "noradId": "58219",
    "tle": [
      "1 58219C 23170P   25288.78451389 -.00009053  00000+0 -66805-3 0  2885",
      "2 58219  43.0020 263.0292 0001249 266.0178 145.6926 15.02540602    15"
    ]
  },
  "58220": {
    "noradId": "58220",
    "tle": [
      "1 58220C 23170Q   25288.78381944 -.00009032  00000+0 -66651-3 0  2882",
      "2 58220  43.0020 262.9888 0001347 268.0536 157.9264 15.02540846    16"
    ]
  },
  "58221": {
    "noradId": "58221",
    "tle": [
      "1 58221C 23170R   25288.78451389 -.00013329  00000+0 -98334-3 0  2881",
      "2 58221  43.0019 262.9423 0001265 267.3992 180.3541 15.02554197    19"
    ]
  },
  "58222": {
    "noradId": "58222",
    "tle": [
      "1 58222C 23170S   25288.78590278  .00007370  00000+0  54387-3 0  2880",
      "2 58222  43.0017 263.6042 0001417 269.4871 257.3124 15.02525513    13"
    ]
  },
  "58223": {
    "noradId": "58223",
    "tle": [
      "1 58223C 23170T   25288.78381944 -.00008521  00000+0 -62870-3 0  2886",
      "2 58223  43.0019 263.5732 0001269 266.7634 266.7530 15.02547589    15"
    ]
  },
  "58224": {
    "noradId": "58224",
    "tle": [
      "1 58224C 23170U   25288.78590278  .00010470  00000+0  77242-3 0  2882",
      "2 58224  43.0019 263.1355 0001250 262.0049 103.1198 15.02531395    14"
    ]
  },
  "58225": {
    "noradId": "58225",
    "tle": [
      "1 58225C 23170V   25288.78451389 -.00001183  00000+0 -42829-4 0  2889",
      "2 58225  43.0003 150.6523 0001488 267.8190 210.3408 15.27583591    15"
    ]
  },
  "58226": {
    "noradId": "58226",
    "tle": [
      "1 58226C 23170W   25288.79215278  .00013080  00000+0  96539-3 0  2889",
      "2 58226  43.0020 252.2186 0001393 263.2109  72.1006 15.02512995    15"
    ]
  },
  "58227": {
    "noradId": "58227",
    "tle": [
      "1 58227C 23170X   25288.78798611  .00006540  00000+0  48261-3 0  2888",
      "2 58227  43.0019 263.7252 0001336 270.5119 213.4666 15.02527056    10"
    ]
  },
  "58228": {
    "noradId": "58228",
    "tle": [
      "1 58228C 23170Y   25288.78590278  .00008601  00000+0  63457-3 0  2882",
      "2 58228  43.0021 263.6934 0001114 259.4015 231.3188 15.02531346    10"
    ]
  },
  "58230": {
    "noradId": "58230",
    "tle": [
      "1 58230C 23171A   25288.78312500  .00003946  00000+0  29109-3 0  2889",
      "2 58230  43.0037 353.4396 0001344 265.2538 221.1153 15.02541798    11"
    ]
  },
  "58231": {
    "noradId": "58231",
    "tle": [
      "1 58231C 23171B   25288.78798611 -.00012537  00000+0 -92492-3 0  2884",
      "2 58231  43.0036 353.4537 0001433 259.6189 235.0339 15.02553569    15"
    ]
  },
  "58232": {
    "noradId": "58232",
    "tle": [
      "1 58232C 23171C   25288.78173611 -.00025010  00000+0 -18453-2 0  2886",
      "2 58232  43.0039 353.5322 0001402 264.4328 178.3476 15.02562392    12"
    ]
  },
  "58233": {
    "noradId": "58233",
    "tle": [
      "1 58233C 23171D   25288.78729167  .00005750  00000+0  42398-3 0  2883",
      "2 58233  43.0036 353.5835 0001538 273.1988 163.5478 15.02557346    19"
    ]
  },
  "58234": {
    "noradId": "58234",
    "tle": [
      "1 58234C 23171E   25288.78451389  .00005461  00000+0  40291-3 0  2881",
      "2 58234  43.0037 353.5562 0001450 262.5227 177.2777 15.02531144    11"
    ]
  },
  "58236": {
    "noradId": "58236",
    "tle": [
      "1 58236C 23171G   25288.78590278 -.00021928  00000+0 -16180-2 0  2881",
      "2 58236  43.0043 353.6297 0001327 264.3825 146.8762 15.02555801    15"
    ]
  },
  "58237": {
    "noradId": "58237",
    "tle": [
      "1 58237C 23171H   25288.78520833  .00004529  00000+0  33413-3 0  2887",
      "2 58237  43.0038 353.2443 0001430 269.0665 300.7261 15.02539014    11"
    ]
  },
  "58238": {
    "noradId": "58238",
    "tle": [
      "1 58238C 23171J   25288.78590278  .00008302  00000+0  61254-3 0  2885",
      "2 58238  43.0043 353.6636 0001374 274.9793 118.2587 15.02529075    19"
    ]
  },
  "58239": {
    "noradId": "58239",
    "tle": [
      "1 58239C 23171K   25288.78243056 -.00018658  00000+0 -13768-2 0  2888",
      "2 58239  43.0043 353.7346 0001366 263.5628  92.8290 15.02552494    10"
    ]
  },
  "58240": {
    "noradId": "58240",
    "tle": [
      "1 58240C 23171L   25288.78798611  .00006561  00000+0  48399-3 0  2889",
      "2 58240  43.0041 354.7257 0001434 266.0588  40.9957 15.02537512    19"
    ]
  },
  "58241": {
    "noradId": "58241",
    "tle": [
      "1 58241C 23171M   25288.78729167  .00015857  00000+0  11686-2 0  2886",
      "2 58241  43.0040 353.7380 0001389 264.3181 100.3618 15.02565926    19"
    ]
  }
}